NORAD_CAT_ID,OBJECT_NAME,OBJECT_TYPE,EPOCH,MEAN_MOTION,ECCENTRICITY,INCLINATION,RA_OF_ASC_NODE,ARG_OF_PERICENTER,MEAN_ANOMALY,BSTAR,MEAN_MOTION_DOT,MEAN_MOTION_DDOT,TLE_LINE0,TLE_LINE1,TLE_LINE2,SEMIMAJOR_AXIS,PERIOD,APOGEE,PERIGEE,DECAYED
52679.0,STARLINK-4031,PAYLOAD,2023-09-25 20:24:32,15.08855141,0.0001389,53.2154,205.6996,93.3556,266.7595,0.00053581,8.253e-05,0.0,0 STARLINK-4031,1 52679U 22053Z   23268.85037286  .00008253  00000-0  53581-3 0  9994,2 52679  53.2154 205.6996 0001389  93.3556 266.7595 15.08855141 75897,6917.834,95.437,540.66,538.738,0.0
52679.0,STARLINK-4031,PAYLOAD,2023-09-26 02:46:04,15.08871623,0.0001407,53.216,204.5103,98.0296,262.0856,0.00095463,0.00014951,0.0,0 STARLINK-4031,1 52679U 22053Z   23269.11532528  .00014951  00000-0  95463-3 0  9990,2 52679  53.2160 204.5103 0001407  98.0296 262.0856 15.08871623 75933,6917.784,95.436,540.622,538.675,0.0
52679.0,STARLINK-4031,PAYLOAD,2023-09-26 20:15:19,15.08839826,0.0001678,53.2167,201.2439,77.0786,283.0393,-3.4723e-06,-3.43e-06,0.0,0 STARLINK-4031,1 52679U 22053Z   23269.84397302 -.00000343  00000-0 -34723-5 0  9995,2 52679  53.2167 201.2439 0001678  77.0786 283.0393 15.08839826 76048,6917.881,95.438,540.907,538.585,0.0
52679.0,STARLINK-4031,PAYLOAD,2023-09-27 02:36:52,15.08827005,0.0001257,53.2157,200.0505,87.3244,272.7892,-0.00029065,-4.909e-05,0.0,0 STARLINK-4031,1 52679U 22053Z   23270.10893868 -.00004909  00000-0 -29065-3 0  9997,2 52679  53.2157 200.0505 0001257  87.3244 272.7892 15.08827005 75699,6917.92,95.438,540.655,538.916,0.0
52679.0,STARLINK-4031,PAYLOAD,2023-09-27 12:09:11,15.08824434,0.000122,53.2154,198.2671,87.777,272.3362,-0.00020977,-3.623e-05,0.0,0 STARLINK-4031,1 52679U 22053Z   23270.50638533 -.00003623  00000-0 -20977-3 0  9992,2 52679  53.2154 198.2671 0001220  87.7770 272.3362 15.08824434 76148,6917.928,95.439,540.637,538.949,0.0
52679.0,STARLINK-4031,PAYLOAD,2023-09-28 04:03:03,15.08835154,0.0001424,53.2153,195.2941,103.6418,256.4733,-0.00020048,-3.477e-05,0.0,0 STARLINK-4031,1 52679U 22053Z   23271.16878569 -.00003477  00000-0 -20048-3 0  9996,2 52679  53.2153 195.2941 0001424 103.6418 256.4733 15.08835154 75850,6917.895,95.438,540.745,538.775,0.0
52679.0,STARLINK-4031,PAYLOAD,2023-09-29 03:53:50,15.08846668,0.0001501,53.2162,190.8317,86.0536,274.0628,0.00046612,7.139e-05,0.0,0 STARLINK-4031,1 52679U 22053Z   23272.16238779  .00007139  00000-0  46612-3 0  9992,2 52679  53.2162 190.8317 0001501  86.0536 274.0628 15.08846668 76008,6917.86,95.437,540.763,538.687,0.0
52679.0,STARLINK-4031,PAYLOAD,2023-09-30 02:09:13,15.08859323,0.0001514,53.2166,186.6664,99.1908,260.9255,0.00033965,5.124e-05,0.0,0 STARLINK-4031,1 52679U 22053Z   23273.08973827  .00005124  00000-0  33965-3 0  9993,2 52679  53.2166 186.6664 0001514  99.1908 260.9255 15.08859323 76532,6917.821,95.436,540.734,538.639,0.0
52679.0,STARLINK-4031,PAYLOAD,2023-09-30 18:03:05,15.08834406,0.0001511,53.2161,183.6955,98.3766,261.7398,-0.00019397,-3.373e-05,0.0,0 STARLINK-4031,1 52679U 22053Z   23273.75214683 -.00003373  00000-0 -19397-3 0  9994,2 52679  53.2161 183.6955 0001511  98.3766 261.7398 15.08834406 76247,6917.897,95.438,540.808,538.717,0.0
52679.0,STARLINK-4031,PAYLOAD,2023-10-01 00:24:37,15.08842394,0.0001631,53.2151,182.5079,94.8057,265.3122,-6.3713e-05,-1.302e-05,0.0,0 STARLINK-4031,1 52679U 22053Z   23274.01710264 -.00001302  00000-0 -63713-4 0  9992,2 52679  53.2151 182.5079 0001631  94.8057 265.3122 15.08842394 76282,6917.873,95.437,540.866,538.61,0.0
52679.0,STARLINK-4031,PAYLOAD,2023-10-01 11:32:19,15.08840793,0.0001568,53.2148,180.4256,99.5736,260.5433,0.00010893,1.446e-05,0.0,0 STARLINK-4031,1 52679U 22053Z   23274.48078643  .00001446  00000-0  10893-3 0  9998,2 52679  53.2148 180.4256 0001568  99.5736 260.5433 15.08840793 76741,6917.878,95.438,540.828,538.658,0.0
52679.0,STARLINK-4031,PAYLOAD,2023-10-01 21:04:38,15.08847101,0.0001464,53.2156,178.6409,101.4145,258.7012,0.00028365,4.23e-05,0.0,0 STARLINK-4031,1 52679U 22053Z   23274.87822419  .00004230  00000-0  28365-3 0  9996,2 52679  53.2156 178.6409 0001464 101.4145 258.7012 15.08847101 76800,6917.859,95.437,540.736,538.711,0.0
52679.0,STARLINK-4031,PAYLOAD,2023-10-02 20:55:25,15.08843234,0.0001517,53.2155,174.1785,103.6419,256.4742,0.00021602,3.152e-05,0.0,0 STARLINK-4031,1 52679U 22053Z   23275.87182653  .00003152  00000-0  21602-3 0  9995,2 52679  53.2155 174.1785 0001517 103.6419 256.4742 15.08843234 76565,6917.871,95.437,540.785,538.686,0.0
52679.0,STARLINK-4031,PAYLOAD,2023-10-03 00:06:12,15.08846664,0.0001382,53.2155,173.5853,91.3027,268.8123,0.00031614,4.748e-05,0.0,0 STARLINK-4031,1 52679U 22053Z   23276.00430674  .00004748  00000-0  31614-3 0  9996,2 52679  53.2155 173.5853 0001382  91.3027 268.8123 15.08846664 76977,6917.86,95.437,540.681,538.769,0.0
52679.0,STARLINK-4031,PAYLOAD,2023-10-03 16:00:03,15.08835778,0.0001453,53.2153,170.6123,102.218,257.8975,8.2156e-05,1.02e-05,0.0,0 STARLINK-4031,1 52679U 22053Z   23276.66671091  .00001020  00000-0  82156-4 0  9996,2 52679  53.2153 170.6123 0001453 102.2180 257.8975 15.08835778 76689,6917.893,95.438,540.763,538.753,0.0
52679.0,STARLINK-4031,PAYLOAD,2023-10-03 22:21:36,15.08840882,0.0001477,53.2152,169.4233,97.8638,262.2522,0.00018189,2.608e-05,0.0,0 STARLINK-4031,1 52679U 22053Z   23276.93167081  .00002608  00000-0  18189-3 0  9992,2 52679  53.2152 169.4233 0001477  97.8638 262.2522 15.08840882 77118,6917.878,95.437,540.764,538.721,0.0
52679.0,STARLINK-4031,PAYLOAD,2023-10-04 09:29:18,15.08848797,0.0001432,53.2155,167.3427,98.3669,261.7486,0.00038411,5.832e-05,0.0,0 STARLINK-4031,1 52679U 22053Z   23277.39534815  .00005832  00000-0  38411-3 0  9998,2 52679  53.2155 167.3427 0001432  98.3669 261.7486 15.08848797 76793,6917.854,95.437,540.709,538.728,0.0
52679.0,STARLINK-4031,PAYLOAD,2023-10-04 22:12:23,15.08851371,0.0001554,53.2159,164.9655,107.2072,252.909,0.00034612,5.226e-05,0.0,0 STARLINK-4031,1 52679U 22053Z   23277.92526629  .00005226  00000-0  34612-3 0  9997,2 52679  53.2159 164.9655 0001554 107.2072 252.9090 15.08851371 77264,6917.846,95.437,540.786,538.636,0.0
52679.0,STARLINK-4031,PAYLOAD,2023-10-05 02:58:32,15.08857406,0.0001436,53.2153,164.0728,105.2136,254.9015,0.00048452,7.435e-05,0.0,0 STARLINK-4031,1 52679U 22053Z   23278.12398247  .00007435  00000-0  48452-3 0  9994,2 52679  53.2153 164.0728 0001436 105.2136 254.9015 15.08857406 77295,6917.827,95.436,540.686,538.699,0.0
52679.0,STARLINK-4031,PAYLOAD,2023-10-05 22:03:10,15.08833918,0.0001786,53.2157,160.5044,79.8889,280.2305,-4.0194e-05,-9.28e-06,0.0,0 STARLINK-4031,1 52679U 22053Z   23278.91887229 -.00000928  00000-0 -40194-4 0  9992,2 52679  53.2157 160.5044 0001786  79.8889 280.2305 15.08833918 77410,6917.899,95.438,541.0,538.528,0.0
52679.0,STARLINK-4031,PAYLOAD,2023-10-06 02:49:19,15.08847614,0.0001646,53.2144,159.6081,81.979,278.1388,0.00044317,6.774e-05,0.0,0 STARLINK-4031,1 52679U 22053Z   23279.11758913  .00006774  00000-0  44317-3 0  9995,2 52679  53.2144 159.6081 0001646  81.9790 278.1388 15.08847614 77051,6917.857,95.437,540.861,538.583,0.0
52679.0,STARLINK-4031,PAYLOAD,2023-10-06 09:10:52,15.08837585,0.0001759,53.2152,158.4155,76.1133,284.0055,0.00035105,5.303e-05,0.0,0 STARLINK-4031,1 52679U 22053Z   23279.38255299  .00005303  00000-0  35105-3 0  9995,2 52679  53.2152 158.4155 0001759  76.1133 284.0055 15.08837585 77098,6917.888,95.438,540.97,538.536,0.0
52679.0,STARLINK-4031,PAYLOAD,2023-10-06 21:53:58,15.08830374,0.0001887,53.2159,156.0376,77.1664,282.9539,-5.2033e-06,-3.71e-06,0.0,0 STARLINK-4031,1 52679U 22053Z   23279.91247866 -.00000371  00000-0 -52033-5 0  9998,2 52679  53.2159 156.0376 0001887  77.1664 282.9539 15.08830374 77561,6917.91,95.438,541.08,538.469,0.0
52679.0,STARLINK-4031,PAYLOAD,2023-10-06 23:29:21,15.0883464,0.0001702,53.2151,155.7448,78.6935,281.4249,2.292e-05,7.7e-07,0.0,0 STARLINK-4031,1 52679U 22053Z   23279.97871663  .00000077  00000-0  22920-4 0  9994,2 52679  53.2151 155.7448 0001702  78.6935 281.4249 15.08834640 77182,6917.897,95.438,540.939,538.584,0.0
52679.0,STARLINK-4031,PAYLOAD,2023-10-07 21:44:45,15.08843838,0.0001697,53.2155,151.5789,77.408,282.7102,0.00022928,3.363e-05,0.0,0 STARLINK-4031,1 52679U 22053Z   23280.90607699  .00003363  00000-0  22928-3 0  9993,2 52679  53.2155 151.5789 0001697  77.4080 282.7102 15.08843838 77719,6917.869,95.437,540.908,538.56,0.0
52679.0,STARLINK-4031,PAYLOAD,2023-10-07 23:20:08,15.08849236,0.0001786,53.2159,151.2812,75.0762,285.0428,0.00034142,5.151e-05,0.0,0 STARLINK-4031,1 52679U 22053Z   23280.97231543  .00005151  00000-0  34142-3 0  9999,2 52679  53.2159 151.2812 0001786  75.0762 285.0428 15.08849236 77330,6917.852,95.437,540.953,538.482,0.0
52679.0,STARLINK-4031,PAYLOAD,2023-10-08 21:35:31,15.08850138,0.0001475,53.2158,147.1179,96.3834,263.7326,0.00021465,3.131e-05,0.0,0 STARLINK-4031,1 52679U 22053Z   23281.89967090  .00003131  00000-0  21465-3 0  9994,2 52679  53.2158 147.1179 0001475  96.3834 263.7326 15.08850138 77861,6917.849,95.437,540.735,538.694,0.0
52679.0,STARLINK-4031,PAYLOAD,2023-10-09 00:46:17,15.08853065,0.0001496,53.216,146.5216,97.3821,262.7341,0.00025881,3.835e-05,0.0,0 STARLINK-4031,1 52679U 22053Z   23282.03214903  .00003835  00000-0  25881-3 0  9996,2 52679  53.2160 146.5216 0001496  97.3821 262.7341 15.08853065 77496,6917.84,95.437,540.74,538.671,0.0
52679.0,STARLINK-4031,PAYLOAD,2023-10-09 08:43:13,15.08839124,0.0001696,53.2155,145.0382,79.7931,280.3252,1.3638e-05,-7.1e-07,0.0,0 STARLINK-4031,1 52679U 22053Z   23282.36335452 -.00000071  00000-0  13638-4 0  9993,2 52679  53.2155 145.0382 0001696  79.7931 280.3252 15.08839124 77549,6917.883,95.438,540.921,538.575,0.0
52679.0,STARLINK-4031,PAYLOAD,2023-10-09 21:26:19,15.08837753,0.0001378,53.2156,142.658,92.7049,267.4101,-5.8017e-05,-1.211e-05,0.0,0 STARLINK-4031,1 52679U 22053Z   23282.89327572 -.00001211  00000-0 -58017-4 0  9993,2 52679  53.2156 142.6580 0001378  92.7049 267.4101 15.08837753 78013,6917.887,95.438,540.706,538.799,0.0
